1 48433C 21040F   22015.77569987  .00012863  00000+0  86143-3 0   150
2 48433  53.0553 107.8333 0001327  99.3397 120.0043 15.06404449    11
1 48433C 21040F   22016.17378725 -.00031219  00000+0 -20912-2 0   163
2 48433  53.0554 106.0464 0001320  99.6360 119.7530 15.06438479    10
1 48433C 21040F   22016.50610478 -.00028037  00000+0 -18793-2 0   162
2 48433  53.0554 104.5546 0001354  98.6917 123.9046 15.06411191    19
1 48433C 21040F   22016.78666421 -.00009245  00000+0 -61986-3 0   164
2 48433  53.0552 103.2952 0001339  99.4195 205.5099 15.06381199    13
1 48433C 21040F   22017.16909298  .00011253  00000+0  75461-3 0   173
2 48433  53.0552 101.5787 0001338  99.2674 120.7100 15.06356584    10
1 48433C 21040F   22017.50196375  .00010671  00000+0  71554-3 0   177
2 48433  53.0550 100.0846 0001337  99.5073 126.5951 15.06359374    11
1 48433C 21040F   22017.78180553  .00012402  00000+0  83146-3 0   172
2 48433  53.0548  98.8285 0001316  99.1600 205.3357 15.06364033    12
1 48433C 21040F   22018.16405955  .00009022  00000+0  60477-3 0   188
2 48433  53.0547  97.1127 0001290  99.5797 118.9981 15.06373878    19
1 48433C 21040F   22018.49708425  .00011317  00000+0  75845-3 0   187
2 48433  53.0545  95.6178 0001291  98.5483 127.0130 15.06377400    10
1 48433C 21040F   22018.77711354  .00013377  00000+0  89627-3 0   184
2 48433  53.0543  94.3607 0001274  97.3163 207.6755 15.06384679    18
1 48433C 21040F   22019.13315108  .00012266  00000+0  82168-3 0   192
2 48433  53.0544  92.7625 0001266  96.5479 340.3058 15.06394071    11
1 48433C 21040F   22019.49307513 -.00006224  00000+0 -41693-3 0   199
2 48433  53.0543  91.1467 0001295  95.4311 134.3858 15.06415162    16
1 48433C 21040F   22019.78631907 -.00015618  00000+0 -10462-2 0   194
2 48433  53.0542  89.8302 0001285  93.4930 287.4826 15.06424264    19
1 48433C 21040F   22020.16268074 -.00003983  00000+0 -26682-3 0   205
2 48433  53.0544  88.1405 0001331  92.7507 170.4096 15.06410779    17
1 48433C 21040F   22020.50657932  .00002840  00000+0  19023-3 0   208
2 48433  53.0544  86.5966 0001376  91.2076 237.9759 15.06402317    19
1 48433C 21040F   22020.78316877 -.00016408  00000+0 -10992-2 0   200
2 48433  53.0545  85.3548 0001403  90.3599 299.6049 15.06418394    13
1 48433C 21040F   22021.50154238 -.00014625  00000+0 -98030-3 0   212
2 48433  53.0547  82.1297 0001503  89.8319 238.0701 15.06396632    17
1 48433C 21040F   22021.82222569 -.00005601  00000+0 -37547-3 0   210
2 48433  53.0548  80.6900 0001537  89.2299 178.7062 15.06382513    13
1 48433C 21040F   22022.14499234  .00005896  00000+0  39524-3 0   223
2 48433  53.0548  79.2410 0001534  89.7124 129.5470 15.06373728    17
1 48433C 21040F   22022.49685854  .00010841  00000+0  72661-3 0   221
2 48433  53.0548  77.6614 0001533  89.8094 238.6654 15.06373578    10
1 48433C 21040F   22022.81789249  .00008126  00000+0  54455-3 0   224
2 48433  53.0548  76.2202 0001506  89.3968 180.9949 15.06384539    18
1 48433C 21040F   22023.18541498  .00003016  00000+0  20205-3 0   237
2 48433  53.0548  74.5703 0001497  90.0452  14.5181 15.06395370    16
1 48433C 21040F   22023.44582267  .00009091  00000+0  60911-3 0   232
2 48433  53.0547  73.4013 0001478  90.0880 347.4584 15.06391170    10
1 48433C 21040F   22023.81354655 -.00014181  00000+0 -95010-3 0   237
2 48433  53.0547  71.7506 0001421  89.9759 182.8425 15.06414197    18
1 48433C 21040F   22024.18055747 -.00016629  00000+0 -11144-2 0   243
2 48433  53.0546  70.1030 0001370  90.0243  14.2187 15.06405823    15
1 48433C 21040F   22024.49169909  .00009493  00000+0  63628-3 0   247
2 48433  53.0545  68.7063 0001349  89.9016 262.6182 15.06375036    10
1 48433C 21040F   22024.80920298  .00005110  00000+0  34247-3 0   245
2 48433  53.0545  67.2810 0001340  88.8547 186.4282 15.06384167    11
1 48433C 21040F   22025.17587357  .00001280  00000+0  85766-4 0   259
2 48433  53.0546  65.6350 0001338  88.4036  16.4270 15.06392499    15
1 48433C 21040F   22025.48634657  .00003215  00000+0  21544-3 0   252
2 48433  53.0544  64.2445 0001405  85.9336 263.5304 15.06390747    10
1 48433C 21040F   22025.80486210  .00006390  00000+0  42808-3 0   251
2 48433  53.0547  62.8114 0001346  86.0714 191.6641 15.06398564    16
1 48433C 21040F   22026.17015776  .00001325  00000+0  88770-4 0   260
2 48433  53.0549  61.1715 0001354  85.8163  14.0272 15.06412813    13
1 48433C 21040F   22026.50294176 -.00039178  00000+0 -26240-2 0   261
2 48433  53.0550  59.6777 0001462  87.7934  17.7662 15.06451592    12
1 48433C 21040F   22026.83895153 -.00005934  00000+0 -39760-3 0   264
2 48433  53.0553  58.1692 0001524  87.3279  41.4955 15.06400507    11
1 48433C 21040F   22027.16734899 -.00021649  00000+0 -14510-2 0   277
2 48433  53.0554  56.6950 0001548  87.5388  23.1724 15.06407830    18
1 48433C 21040F   22027.47882626 -.00001613  00000+0 -10815-3 0   277
2 48433  53.0555  55.2968 0001509  87.6146 273.1927 15.06379720    11
1 48433C 21040F   22027.79653045  .00007467  00000+0  50058-3 0   277
2 48433  53.0556  53.8706 0001476  86.0015 198.6612 15.06372428    17
1 48433C 21040F   22028.16284230  .00002592  00000+0  17372-3 0   282
2 48433  53.0557  52.2263 0001474  86.3191  25.9303 15.06382919    10
1 48433C 21040F   22028.50469809  .00013590  00000+0  91077-3 0   281
2 48433  53.0557  50.6918 0001476  86.0625  81.0942 15.06377312    13
1 48433C 21040F   22028.82988494  .00007944  00000+0  53228-3 0   284
2 48433  53.0558  49.2320 0001461  85.9616  45.6532 15.06389112    19
1 48433C 21040F   22029.19236349  .00002787  00000+0  18671-3 0   294
2 48433  53.0556  47.6048 0001460  86.6637 211.7627 15.06400510    13
1 48433C 21040F   22029.50867060  .00003450  00000+0  23118-3 0   299
2 48433  53.0554  46.1851 0001392  90.0540 124.6694 15.06387805    10
1 48433C 21040F   22029.85643968  .00009378  00000+0  62828-3 0   292
2 48433  53.0554  44.6237 0001407  89.3787 212.3415 15.06391074    11
1 48433C 21040F   22030.20797256  .00003831  00000+0  25663-3 0   309
2 48433  53.0552  43.0456 0001404  90.0434 319.1005 15.06401921    14
1 48433C 21040F   22030.50207368 -.00005543  00000+0 -37132-3 0   300
2 48433  53.0549  41.7253 0001372  90.2207 114.7286 15.06410269    19
1 48433C 21040F   22030.87118999 -.00009043  00000+0 -60595-3 0   309
2 48433  53.0549  40.0682 0001316  89.6748 318.1294 15.06405071    11
1 48433C 21040F   22031.20328651  .00004622  00000+0  30969-3 0   314
2 48433  53.0547  38.5773 0001298  89.5494 320.2314 15.06389828    16
1 48433C 21040F   22031.86704792 -.00015450  00000+0 -10353-2 0   317
2 48433  53.0547  35.5973 0001254  87.5959 323.7659 15.06411780    14
1 48433C 21040F   22032.17742683 -.00003193  00000+0 -21395-3 0   324
2 48433  53.0547  34.2038 0001248  87.8917 207.6128 15.06394517    11
1 48433C 21040F   22032.49409855  .00015258  00000+0  10224-2 0   321
2 48433  53.0548  32.7822 0001206  86.1596 127.6137 15.06380833    12
1 48433C 21040F   22032.84292204 -.00013452  00000+0 -90151-3 0   322
2 48433  53.0551  31.2162 0001179  84.5806 221.9027 15.06404249    16
1 48433C 21040F   22033.48940442  .00015716  00000+0  10533-2 0   336
2 48433  53.0554  28.3139 0001144  82.7151 131.6028 15.06371855    19
1 48433C 21040F   22033.82309618  .00009117  00000+0  61102-3 0   335
2 48433  53.0557  26.8159 0001160  81.4635 143.4555 15.06381617    11
1 48433C 21040F   22034.16806187  .00007699  00000+0  51580-3 0   349
2 48433  53.0559  25.2673 0001179  82.0290 214.6725 15.06393539    17
1 48433C 21040F   22034.48525328  .00011704  00000+0  78392-3 0   341
2 48433  53.0560  23.8435 0001156  81.9784 135.8126 15.06400703    11
1 48433C 21040F   22034.83558602 -.00008240  00000+0 -55184-3 0   348
2 48433  53.0563  22.2708 0001120  81.3721 237.3485 15.06425848    19
1 48433C 21040F   22035.18592097 -.00013621  00000+0 -91234-3 0   359
2 48433  53.0563  20.6981 0001121  81.9827 337.7028 15.06424014    10
1 48433C 21040F   22035.48124662 -.00020733  00000+0 -13891-2 0   355
2 48433  53.0563  19.3724 0001183  82.3318 139.8182 15.06420703    11
1 48433C 21040F   22035.87240578 -.00014615  00000+0 -97954-3 0   358
2 48433  53.0564  17.6165 0001306  83.4093 101.2081 15.06401825    16
1 48433C 21040F   22036.19247798 -.00008117  00000+0 -54407-3 0   362
2 48433  53.0563  16.1798 0001377  83.8607  37.4861 15.06390754    18
1 48433C 21040F   22036.49149463  .00013688  00000+0  91750-3 0   364
2 48433  53.0561  14.8376 0001437  84.6245 219.1913 15.06370886    18
1 48433C 21040F   22036.84600331  .00001454  00000+0  97444-4 0   364
2 48433  53.0561  13.2464 0001431  84.9481 342.4094 15.06382959    12
1 48433C 21040F   22037.18368779 -.00013997  00000+0 -93846-3 0   378
2 48433  53.0559  11.7307 0001378  84.7819  14.8427 15.06388667    13
1 48433C 21040F   22037.52360723  .00011598  00000+0  77755-3 0   371
2 48433  53.0557  10.2048 0001358  84.6701  59.3579 15.06363285    15
1 48433C 21040F   22037.86908933  .00011896  00000+0  79745-3 0   371
2 48433  53.0557   8.6542 0001354  84.6177 133.9677 15.06368948    17
1 48433C 21040F   22038.15016833  .00010815  00000+0  72493-3 0   387
2 48433  53.0556   7.3924 0001377  84.6362 219.0701 15.06373507    18
1 48433C 21040F   22038.48304096  .00008687  00000+0  58220-3 0   380
2 48433  53.0555   5.8982 0001391  82.9489 226.9095 15.06379413    16
1 48433C 21040F   22038.80139562  .00012389  00000+0  83005-3 0   383
2 48433  53.0556   4.4691 0001410  83.2140 154.0343 15.06387627    12
1 48433C 21040F   22039.16960447  .00013315  00000+0  89184-3 0   392
2 48433  53.0557   2.8162 0001428  82.8651 352.2944 15.06396903    15
1 48433C 21040F   22039.53629711 -.00008289  00000+0 -55513-3 0   394
2 48433  53.0557   1.1700 0001491  82.1730 182.6730 15.06422996    16
1 48433C 21040F   22039.79708456 -.00013305  00000+0 -89120-3 0   392
2 48433  53.0559 359.9993 0001523  82.4103 157.4957 15.06422025    13
